STARLINK-5474           
1 55665U 23021AP  26181.43458562  .00000592  00000+0  57443-4 0  9992
2 55665  69.9984 240.1429 0003652 269.8688  90.2053 14.98335926186160
STARLINK-5456           
1 55667U 23021AR  26181.48881202 -.00000241  00000+0 -12364-4 0  9996
2 55667  69.9984 239.9289 0003408 269.3389  90.7379 14.98327982186174
STARLINK-5455           
1 55668U 23021AS  26181.45126921 -.00000111  00000+0 -15358-5 0  9997
2 55668  69.9986 240.2011 0003574 269.9193  90.1556 14.98331041186169
STARLINK-5459           
1 55669U 23021AT  26181.57643816  .00000361  00000+0  38011-4 0  9993
2 55669  69.9985 239.8350 0003583 269.9027  90.1721 14.98333341186186
STARLINK-5423           
1 55670U 23021AU  26181.49716021 -.00000391  00000+0 -24999-4 0  9990
2 55670  69.9981 239.9574 0003562 270.3155  89.7596 14.98329090186188
STARLINK-5460           
1 55671U 23021AV  26181.47647992 -.00000549  00000+0 -38249-4 0  9997
2 55671  69.9986 240.2763 0003539 268.7195  91.3558 14.98328980186171
STARLINK-5463           
1 55673U 23021AX  26181.49298583 -.00000355  00000+0 -21967-4 0  9993
2 55673  69.9983 239.9423 0003570 269.1925  90.8825 14.98328071186182
STARLINK-5462           
1 55674U 23021AY  26181.48463497  .00001507  00000+0  13405-3 0  9996
2 55674  69.9997 239.9125 0003986 267.8732  92.1971 14.98332053186181
STARLINK-5232           
1 55675U 23021AZ  26181.94361023 -.00000785  00000+0 -58007-4 0  9997
2 55675  69.9980 238.7067 0003677 272.3254  87.7484 14.98325251186252
STARLINK-5300           
1 55676U 23021BA  26181.49292620  .00000711  00000+0  67407-4 0  9995
2 55676  69.9990 220.0714 0003739 268.3287  91.7444 14.98331668186673
STARLINK-5324           
1 55677U 23021BB  26182.14783597 -.00000043  00000+0  42148-5 0  9992
2 55677  69.9983 218.3417 0003734 269.7081  90.3651 14.98331023186779
ZHONGXING-26            
1 55686U 23023A   26180.68456625 -.00000342  00000+0  00000+0 0  9997
2 55686   0.0638  69.5474 0003458  28.5668 191.2311  1.00272817 12356
HORUS 1                 
1 55690U 23025A   26182.21009355  .00006746  00000+0  28631-3 0  9996
2 55690  97.3462 256.5097 0002301 133.6928 226.4500 15.23407962186182
STARLINK-5592           
1 55741U 23028A   26182.09059190  .00000141  00000+0  19645-4 0  9993
2 55741  70.0008 318.6484 0002874 272.3832  87.6998 14.98332116183211
STARLINK-5594           
1 55742U 23028B   26182.09476847 -.00000186  00000+0 -78025-5 0  9995
2 55742  70.0008 318.6631 0002554 273.0822  87.0044 14.98330231183029
STARLINK-5602           
1 55743U 23028C   26182.09894081 -.00000047  00000+0  38474-5 0  9999
2 55743  70.0007 318.6787 0003804 269.3875  90.6848 14.98329849183021
STARLINK-5601           
1 55744U 23028D   26182.09493419  .00000030  00000+0  10341-4 0  9993
2 55744  70.0006 318.6638 0003071 266.0415  94.0393 14.98328972183025
STARLINK-5579           
1 55746U 23028F   26181.79850846  .00000000  00000+0  78208-5 0  9996
2 55746  70.0003 319.2336 0002973 270.2111  89.8708 14.98330724182980
STARLINK-5539           
1 55747U 23028G   26182.08224388  .00000094  00000+0  15692-4 0  9996
2 55747  70.0008 318.6186 0003162 270.1877  89.8919 14.98331542183020
STARLINK-5580           
1 55748U 23028H   26182.07806773  .00000107  00000+0  16793-4 0  9998
2 55748  70.0003 318.6038 0003707 269.8319  90.2415 14.98332927183028
STARLINK-5573           
1 55750U 23028K   26181.47305378  .00000639  00000+0  61320-4 0  9995
2 55750  70.0003 320.1037 0003185 269.0579  91.0215 14.98333578182937
STARLINK-5577           
1 55751U 23028L   26182.08641814  .00000179  00000+0  22761-4 0  9997
2 55751  70.0007 318.6338 0003185 270.3205  89.7590 14.98330918183025
STARLINK-5613           
1 55752U 23028M   26182.11561006 -.00000068  00000+0  21261-5 0  9999
2 55752  70.0001 318.3316 0003177 267.3981  92.6815 14.98330491183031
STARLINK-5617           
1 55753U 23028N   26181.46487237  .00000123  00000+0  18117-4 0  9996
2 55753  70.0000 320.0760 0003177 268.2051  91.8744 14.98331811182939
STARLINK-5612           
1 55754U 23028P   26182.12395890 -.00000027  00000+0  55249-5 0  9996
2 55754  70.0001 318.3606 0003047 267.7108  92.3702 14.98331094183038
STARLINK-5614           
1 55756U 23028R   26182.10726860  .00001123  00000+0  10186-3 0  9997
2 55756  70.0001 318.3023 0003027 268.5934  91.4878 14.98330282183039
STARLINK-5544           
1 55757U 23028S   26182.12813420  .00000494  00000+0  49169-4 0  9993
2 55757  70.0000 318.3764 0002934 269.8348  90.2475 14.98331666183037
STARLINK-5072           
1 55758U 23028T   26182.11978492  .00000230  00000+0  27111-4 0  9995
2 55758  70.0002 318.3472 0003182 269.7742  90.3052 14.98330679183034
STARLINK-5532           
1 55760U 23028V   26181.83604807 -.00000030  00000+0  53069-5 0  9993
2 55760  70.0003 318.9627 0003143 270.0911  89.9887 14.98331827182996
STARLINK-5611           
1 55761U 23028W   26181.48134545  .00000077  00000+0  14282-4 0  9995
2 55761  69.9999 300.2520 0003292 270.2735  89.8047 14.98331987183428
