OBJECT_NAME,OBJECT_ID,EPOCH,MEAN_MOTION,ECCENTRICITY,INCLINATION,RA_OF_ASC_NODE,ARG_OF_PERICENTER,MEAN_ANOMALY,EPHEMERIS_TYPE,CLASSIFICATION_TYPE,NORAD_CAT_ID,ELEMENT_SET_NO,REV_AT_EPOCH,BSTAR,MEAN_MOTION_DOT,MEAN_MOTION_DDOT
STARLINK-5474,2023-021AP,2026-06-30T10:25:48.197568,14.98335926,.00036528,69.9984,240.1429,269.8688,90.2053,0,U,55665,999,18616,.57442527E-4,.592E-5,0
STARLINK-5456,2023-021AR,2026-06-30T11:43:53.358528,14.98327982,.00034083,69.9984,239.9289,269.3389,90.7379,0,U,55667,999,18617,-.12364015E-4,-.241E-5,0
STARLINK-5455,2023-021AS,2026-06-30T10:49:49.659744,14.98331041,.00035748,69.9986,240.2011,269.9193,90.1556,0,U,55668,999,18616,-.1535764E-5,-.111E-5,0
STARLINK-5459,2023-021AT,2026-06-30T13:50:04.257024,14.98333341,.00035833,69.9985,239.8350,269.9027,90.1721,0,U,55669,999,18618,.38011296E-4,.361E-5,0
STARLINK-5423,2023-021AU,2026-06-30T11:55:54.642144,14.98329090,.00035621,69.9981,239.9574,270.3155,89.7596,0,U,55670,999,18618,-.24998619E-4,-.391E-5,0
STARLINK-5460,2023-021AV,2026-06-30T11:26:07.865088,14.98328980,.00035399,69.9986,240.2763,268.7195,91.3558,0,U,55671,999,18617,-.38248778E-4,-.549E-5,0
STARLINK-5463,2023-021AX,2026-06-30T11:49:53.975712,14.98328071,.00035708,69.9983,239.9423,269.1925,90.8825,0,U,55673,999,18618,-.21967411E-4,-.355E-5,0
STARLINK-5462,2023-021AY,2026-06-30T11:37:52.461408,14.98332053,.00039868,69.9997,239.9125,267.8732,92.1971,0,U,55674,999,18618,.13404904E-3,.1507E-4,0
STARLINK-5232,2023-021AZ,2026-06-30T22:38:47.923872,14.98325251,.0003677,69.9980,238.7067,272.3254,87.7484,0,U,55675,999,18625,-.58007E-4,-.785E-5,0
STARLINK-5300,2023-021BA,2026-06-30T11:49:48.823680,14.98331668,.00037394,69.9990,220.0714,268.3287,91.7444,0,U,55676,999,18667,.67407018E-4,.711E-5,0
STARLINK-5324,2023-021BB,2026-07-01T03:32:53.027808,14.98331023,.0003734,69.9983,218.3417,269.7081,90.3651,0,U,55677,999,18677,.42148E-5,-.43E-6,0
ZHONGXING-26,2023-023A,2026-06-29T16:25:46.524000,1.00272817,.00034584,0.0638,69.5474,28.5668,191.2311,0,U,55686,999,1235,0,-.342E-5,0
HORUS 1,2023-025A,2026-07-01T05:02:32.082720,15.23407962,.0002301,97.3462,256.5097,133.6928,226.4500,0,U,55690,999,18618,.28631E-3,.6746E-4,0
STARLINK-5592,2023-028A,2026-07-01T02:10:27.140160,14.98332116,.0002874,70.0008,318.6484,272.3832,87.6998,0,U,55741,999,18321,.19645E-4,.141E-5,0
STARLINK-5594,2023-028B,2026-07-01T02:16:27.995808,14.98330231,.0002554,70.0008,318.6631,273.0822,87.0044,0,U,55742,999,18302,-.78025E-5,-.186E-5,0
STARLINK-5602,2023-028C,2026-07-01T02:22:28.485984,14.98329849,.0003804,70.0007,318.6787,269.3875,90.6848,0,U,55743,999,18302,.38474E-5,-.47E-6,0
STARLINK-5601,2023-028D,2026-07-01T02:16:42.314016,14.98328972,.0003071,70.0006,318.6638,266.0415,94.0393,0,U,55744,999,18302,.10341E-4,.3E-6,0
STARLINK-5579,2023-028F,2026-06-30T19:09:51.130944,14.98330724,.00029735,70.0003,319.2336,270.2111,89.8708,0,U,55746,999,18298,.7820778E-5,0,0
STARLINK-5539,2023-028G,2026-07-01T01:58:25.871232,14.98331542,.0003162,70.0008,318.6186,270.1877,89.8919,0,U,55747,999,18302,.15692E-4,.94E-6,0
STARLINK-5580,2023-028H,2026-07-01T01:52:25.051872,14.98332927,.0003707,70.0003,318.6038,269.8319,90.2415,0,U,55748,999,18302,.16793E-4,.107E-5,0
STARLINK-5573,2023-028K,2026-06-30T11:21:11.846592,14.98333578,.00031855,70.0003,320.1037,269.0579,91.0215,0,U,55750,999,18293,.61319925E-4,.639E-5,0
STARLINK-5577,2023-028L,2026-07-01T02:04:26.527296,14.98330918,.0003185,70.0007,318.6338,270.3205,89.7590,0,U,55751,999,18302,.22761E-4,.179E-5,0
STARLINK-5613,2023-028M,2026-07-01T02:46:28.709184,14.98330491,.0003177,70.0001,318.3316,267.3981,92.6815,0,U,55752,999,18303,.21261E-5,-.68E-6,0
STARLINK-5617,2023-028N,2026-06-30T11:09:24.972768,14.98331811,.00031779,70.0000,320.0760,268.2051,91.8744,0,U,55753,999,18293,.18116523E-4,.123E-5,0
STARLINK-5612,2023-028P,2026-07-01T02:58:30.048960,14.98331094,.0003047,70.0001,318.3606,267.7108,92.3702,0,U,55754,999,18303,.55249E-5,-.27E-6,0
STARLINK-5614,2023-028R,2026-07-01T02:34:28.007040,14.98330282,.0003027,70.0001,318.3023,268.5934,91.4878,0,U,55756,999,18303,.10186E-3,.1123E-4,0
STARLINK-5544,2023-028S,2026-07-01T03:04:30.794880,14.98331666,.0002934,70.0000,318.3764,269.8348,90.2475,0,U,55757,999,18303,.49169E-4,.494E-5,0
STARLINK-5072,2023-028T,2026-07-01T02:52:29.417088,14.98330679,.0003182,70.0002,318.3472,269.7742,90.3052,0,U,55758,999,18303,.27111E-4,.23E-5,0
STARLINK-5532,2023-028V,2026-06-30T20:03:54.553248,14.98331827,.0003143,70.0003,318.9627,270.0911,89.9887,0,U,55760,999,18299,.53069E-5,-.3E-6,0
STARLINK-5611,2023-028W,2026-06-30T11:33:08.246880,14.98331987,.00032924,69.9999,300.2520,270.2735,89.8047,0,U,55761,999,18342,.14281819E-4,.77E-6,0
